INTELSAT 701 (IS-701)   
1 22871U 93066A   17227.73587706 -.00000038  00000-0  00000+0 0  9997
2 22871   4.3061  66.7525 0002029 118.0059  65.6781  0.99322309 86985
INTELSAT 26 (IS-26)     
1 24732U 97007A   17227.04215900 -.00000025  00000-0  00000+0 0  9998
2 24732   7.5476  49.6017 0002579  97.8902 257.1223  1.00273338 74914
GALAXY 25 (G-25)        
1 24812U 97026A   17227.35882319 -.00000178  00000-0  00000+0 0  9995
2 24812   0.0106  66.9840 0003526  75.0804 217.9577  1.00272943 73993
INTELSAT 5 (IS-5)       
1 24916U 97046A   17225.86580680 -.00000155  00000-0  00000-0 0  9998
2 24916   3.6556  70.8247 0002518  78.8072 281.4303  1.00272051 73239
INTELSAT 805 (IS-805)   
1 25371U 98037A   17227.81160420 -.00000048  00000-0  00000+0 0  9998
2 25371   0.1341  95.1571 0003385  75.8356 254.5779  1.00272224 70208
AFRISTAR                
1 25515U 98063A   17227.32028633  .00000108  00000-0  00000+0 0  9998
2 25515   3.4106  69.5508 0003739  81.3632 309.2618  1.00270668 68768
INTELSAT 8 (IS-8)       
1 25522U 98065A   17226.51600841 -.00000105  00000-0  00000+0 0  9993
2 25522   1.1373  87.5456 0295025 221.9902  90.8339  0.95185046 68639
GALAXY 11 (G-11)        
1 26038U 99071A   17227.82011244  .00000120  00000-0  00000+0 0  9998
2 26038   0.0372  82.4102 0000946 341.5954 240.5351  1.00271366 64736
SIRIUS-1                
1 26390U 00035A   17226.54421980  .00000089  00000-0  00000+0 0  9995
2 26390  59.5129 225.0979 0005101 248.3872 207.0730  1.57876880 64467
INTELSAT 9 (IS-9)       
1 26451U 00043A   17227.17529326 -.00000232  00000-0  00000+0 0  9996
2 26451   3.6436  71.0358 0002680  84.2990 202.0416  1.00271165 62471
INTELSAT 12 (IS-12)     
1 26590U 00068A   17227.13730400  .00000121  00000-0  00000+0 0  9996
2 26590   0.6055  92.8847 0003400 101.8016 223.4644  1.00273193 61437
INTELSAT 1R (IS-1R)     
1 26608U 00072A   17227.81160420 -.00000046  00000-0  00000+0 0  9992
2 26608   0.4367  93.8655 0000228 315.3475  16.5632  1.00272038 61294
INTELSAT 10 (IS-10)     
1 26766U 01019A   17226.91160348  .00000111  00000-0  00000-0 0  9991
2 26766   1.6356  84.9738 0001656  43.0405 211.1583  1.00272420 13264
INTELSAT 901 (IS-901)   
1 26824U 01024A   17227.83830418 -.00000158  00000-0  00000+0 0  9997
2 26824   0.0534 281.1057 0002723 233.7392  93.3536  1.00270984 59232
INTELSAT 902 (IS-902)   
1 26900U 01039A   17227.30118887  .00000017  00000-0  00000+0 0  9992
2 26900   0.0133  89.3541 0002810  59.4516 345.5101  1.00273746 58403
DIRECTV 4S              
1 26985U 01052A   17227.13084338 -.00000128  00000-0  00000+0 0  9998
2 26985   0.0444 279.4494 0001665 247.6984 102.4887  1.00271970 57628
INTELSAT 904 (IS-904)   
1 27380U 02007A   17227.81577123  .00000120  00000-0  00000+0 0  9994
2 27380   0.0186 195.9327 0002664 326.4973 140.7309  1.00270360 56728
INTELSAT 903 (IS-903)   
1 27403U 02016A   17227.69837612 -.00000255  00000-0  00000+0 0  9998
2 27403   0.0158 107.7004 0003042  92.8930 340.6030  1.00269278 56283
DIRECTV 5 (TEMPO 1)     
1 27426U 02023A   17226.40862621 -.00000069  00000-0  00000+0 0  9990
2 27426   0.0132 114.6630 0003268  37.9339 207.4203  1.00271950 55938
INTELSAT 905 (IS-905)   
1 27438U 02027A   17227.52340826 -.00000200  00000-0  00000+0 0  9996
2 27438   0.0130 178.5073 0002405 331.0907 338.4278  1.00271091 55607
GALAXY 3C (G-3C)        
1 27445U 02030A   17227.36408843 -.00000166  00000-0  00000+0 0  9995
2 27445   0.0245 325.4179 0001837 357.8005  36.7660  1.00270067 55598
INTELSAT 906 (IS-906)   
1 27513U 02041A   17226.76296110  .00000000  00000-0  00000+0 0  9994
2 27513   0.0089 119.5713 0002723  38.4753 144.1205  1.00273113 54596
INTELSAT 907 (IS-907)   
1 27683U 03007A   17227.17706592 -.00000217  00000-0  00000+0 0  9992
2 27683   0.0246 219.0588 0002797 295.5673 205.3851  1.00271393 53025
GALAXY 12 (G-12)        
1 27715U 03013B   17227.14073704  .00000044  00000-0  00000+0 0  9991
2 27715   0.0589 273.8933 0001951 238.5547  92.9216  1.00271703 52637
GALAXY 23 (G-23)        
1 27854U 03034A   17227.64599875 -.00000004  00000-0  00000+0 0  9992
2 27854   0.0197  97.4772 0002921  51.4403 286.8796  1.00273798 56185
GALAXY 13 (HORIZONS-1)  
1 27954U 03044A   17227.14073704  .00000033  00000-0  00000+0 0  9998
2 27954   0.0204  99.5247 0001285  26.0240 121.8347  1.00270337 50791
DIRECTV 7S              
1 28238U 04016A   17226.75257664 -.00000013  00000-0  00000-0 0  9999
2 28238   0.0453 286.0395 0003001 228.7705 320.4020  1.00274318 48701
INTELSAT 10-02          
1 28358U 04022A   17227.41091249 -.00000027  00000-0  00000+0 0  9992
2 28358   0.0109 150.4042 0000202 229.3405  91.2056  1.00271103 48261
XM-3 (RHYTHM)           
1 28626U 05008A   17227.81624694 -.00000222  00000-0  00000+0 0  9992
2 28626   0.0014 340.1720 0000253 218.4319 334.5259  1.00272524 45706
SPACEWAY 1              
1 28644U 05015A   17227.27700113 -.00000117  00000-0  00000+0 0  9994
2 28644   0.0420 275.3885 0000214 267.2406 138.0281  1.00270392 45145
DIRECTV 8               
1 28659U 05019A   17226.38300253 -.00000129  00000-0  00000+0 0  9999
2 28659   0.0171  89.0391 0003010  63.6776 207.2977  1.00271498 44813
GALAXY 28 (G-28)        
1 28702U 05022A   17227.73795903 -.00000201  00000-0  00000+0 0  9993
2 28702   0.0172 107.0134 0000262 268.5361 125.4173  1.00263564 44466
GALAXY 14 (G-14)        
1 28790U 05030A   17227.14073704  .00000022  00000-0  00000+0 0  9992
2 28790   0.0447 281.1413 0002444 232.4400  95.8076  1.00272298 43937
GALAXY 15 (G-15)        
1 28884U 05041A   17226.63010326  .00000065  00000-0  00000+0 0  9999
2 28884   0.0380 272.1397 0001143 229.0391 275.8803  1.00273529 43255
SPACEWAY 2              
1 28903U 05046B   17227.34845209 -.00000142  00000-0  00000+0 0  9998
2 28903   0.0130  86.8763 0000126 249.7321  13.7048  1.00268925 43129
GALAXY 16 (G-16)        
1 29236U 06023A   17226.61112829 -.00000141  00000-0  00000+0 0  9997
2 29236   0.0154 122.4791 0002928  40.3703 281.3623  1.00273060 40893
DIRECTV 9S              
1 29494U 06043A   17226.74285223 -.00000128  00000-0  00000+0 0  9993
2 29494   0.0101 158.8962 0003403 353.5337 337.2293  1.00271003 39735
XM-4 (BLUES)            
1 29520U 06049A   17227.06648125 -.00000038  00000-0  00000+0 0  9999
2 29520   0.0026 296.6801 0000479 280.7215  15.0305  1.00271033 39626
GALAXY 17 (G-17)        
1 31307U 07016B   17226.73799289 -.00000189  00000-0  00000+0 0  9998
2 31307   0.0260  63.1538 0003308  89.0922 345.7803  1.00272755 37700
DIRECTV 10              
1 31862U 07032A   17226.38846888 -.00000116  00000-0  00000-0 0  9992
2 31862   0.0491 284.9661 0000432 260.1225 174.9094  1.00272013 13261
SPACEWAY 3              
1 32018U 07036A   17227.53243716 -.00000168  00000-0  00000+0 0  9995
2 32018   0.0042  54.0824 0000197 148.0968 218.6648  1.00272417 36769
INTELSAT 11 (IS-11)     
1 32253U 07044B   17226.90396372 -.00000283  00000-0  00000+0 0  9990
2 32253   0.0393 246.0175 0001769 273.6511  86.2638  1.00270316 36153
HORIZONS-2              
1 32388U 07063B   17227.50515654 -.00000198  00000-0  00000+0 0  9998
2 32388   0.0161  82.7177 0002989  68.2621  79.8267  1.00272075 35516
DIRECTV 11              
1 32729U 08013A   17226.74285223 -.00000140  00000-0  00000+0 0  9991
2 32729   0.0006 242.9837 0000416 323.1527 285.4421  1.00270626 34568
GALAXY 18 (G-18)        
1 32951U 08024A   17227.44161368  .00000009  00000-0  00000+0 0  9994
2 32951   0.0102 121.9885 0003041  37.2586 200.7623  1.00272438 33720
INTELSAT 25 (IS-25)     
1 33153U 08034A   17226.19089533 -.00000237  00000-0  00000+0 0  9998
2 33153   0.0090 183.7742 0002559 314.2344 222.0109  1.00269453 33260
GALAXY 19 (G-19)        
1 33376U 08045A   17227.36961464 -.00000154  00000-0  00000+0 0  9997
2 33376   0.0223 217.3812 0003120 299.8703 202.7595  1.00269645 32478
SIRIUS FM-5             
1 35493U 09034A   17227.44722858 -.00000216  00000-0  00000+0 0  9998
2 35493   0.0147  85.5583 0000620 226.1888  87.1452  1.00268919 29616
INTELSAT 14 (IS-14)     
1 36097U 09064A   17227.22555210 -.00000289  00000-0  00000+0 0  9994
2 36097   0.0080 114.1743 0002300  38.6357 207.2021  1.00268627 28346
INTELSAT 15 (IS-15)     
1 36106U 09067A   17227.50515654 -.00000201  00000-0  00000+0 0  9991
2 36106   0.0162  88.7723 0002243  69.6879  72.6329  1.00271281 28234
DIRECTV 12              
1 36131U 09075A   17227.26846462 -.00000118  00000-0  00000+0 0  9992
2 36131   0.0414 275.8775 0000212 226.1767 175.6476  1.00271021 28013
INTELSAT 16 (IS-16)     
1 36397U 10006A   17227.80327087 -.00000302  00000-0  00000+0 0  9994
2 36397   0.0121 102.1790 0001427  55.0886  38.2041  1.00267195 27378
XM-5                    
1 37185U 10053A   17226.27756653 -.00000218  00000-0  00000-0 0  9994
2 37185   0.0195 100.5235 0001677 234.1050   2.9785  1.00269830 25112
INTELSAT 17 (IS-17)     
1 37238U 10065B   17227.42132427 -.00000018  00000-0  00000+0 0  9998
2 37238   0.0563 257.1509 0002445 249.6245  34.9088  1.00272894 24556
INTELSAT NEW DAWN       
1 37392U 11016A   17226.83658514  .00000141  00000-0  00000-0 0  9997
2 37392   0.0445 266.2920 0000741 317.8585  73.2607  1.00270722 20924
INTELSAT 18 (IS-18)     
1 37834U 11056A   17226.64007875  .00000039  00000-0  00000+0 0  9994
2 37834   0.0174 108.4608 0001958  44.9426 220.2538  1.00272472 21480
INTELSAT 22 (IS-22)     
1 38098U 12011A   17226.90116234 -.00000073  00000-0  00000+0 0  9997
2 38098   0.0197  11.6104 0001982 137.0246 211.3747  1.00272134 19682
INTELSAT 19 (IS-19)     
1 38356U 12030A   17226.64104790 -.00000071  00000-0  00000+0 0  9998
2 38356   0.0191  10.5416 0002995 133.0745 216.4025  1.00270882 19146
INTELSAT 20 (IS-20)     
1 38740U 12043A   17226.91109766 -.00000039  00000-0  00000+0 0  9991
2 38740   0.0172 122.3981 0001294  61.9814 175.6172  1.00272187 18461
INTELSAT 21 (IS-21)     
1 38749U 12045A   17227.26153870 -.00000300  00000-0  00000+0 0  9997
2 38749   0.0192 113.9826 0001867  39.9542 206.0726  1.00269504 18277
INTELSAT 23 (IS-23)     
1 38867U 12057A   17227.24766677 -.00000300  00000-0  00000+0 0  9994
2 38867   0.0488 273.0019 0001701 248.7290 198.2725  1.00270765 17748
SIRIUS FM-6             
1 39360U 13058A   17226.42534309 -.00000030  00000-0  00000+0 0  9999
2 39360   0.0093  65.2849 0000224  63.8104 230.9051  1.00270073 13979
INTELSAT 30 (IS-30)     
1 40271U 14062A   17224.58171153 -.00000161  00000-0  00000+0 0  9992
2 40271   0.0177 103.9072 0001742 344.4309 347.2365  1.00271292 10379
INTELSAT 34 (IS-34)     
1 40874U 15039A   17226.25733253 -.00000298  00000-0  00000-0 0  9999
2 40874   0.0126 105.0775 0000570 267.0208 347.9030  1.00266840  7297
INTELSAT 29E (IS-29E)   
1 41308U 16004A   17227.23940072 -.00000297  00000-0  00000+0 0  9991
2 41308   0.0586 273.1353 0001760 243.4952 203.3747  1.00268866  5798
INTELSAT 31 (IS-31)     
1 41581U 16035A   17227.36412044 -.00000166  00000-0  00000+0 0  9990
2 41581   0.0336 252.7524 0001396 336.9099 130.3226  1.00272075  4339
INTELSAT 36 (IS-36)     
1 41747U 16053A   17225.91383640 -.00000037  00000-0  00000-0 0  9990
2 41747   0.0113  66.3890 0001756 265.6008  27.9995  1.00272880  3594
INTELSAT 33E (IS-33E)   
1 41748U 16053B   17225.93743376  .00000037  00000-0  00000-0 0  9998
2 41748   0.0142  47.8867 0003417 121.8385 190.2807  1.00271515  3840
